ID	Fwy	Dir	District	County	City	State_PM	Abs_PM	Latitude	Longitude	Length	Type	Lanes	Name	User_ID_1	User_ID_2	User_ID_3	User_ID_4
500010011	1	N	5	53		72.33	322.865	36.53585	-121.912881	2.713	ML	1	CARMEL RIV BRIDGE HWY 1 NB VDS M	1
500010012	1	S	5	53		72.331	322.8	36.53586	-121.91287	2.714	ML	1	CARMEL RIV BRIDGE HWY 1 NB VDS M	1
500010021	1	N	5	53		72.757	323.292	36.541075	-121.908778	.697	ML	2	CARMEL VALLEY RD HWY 1 NB VDS ML	1
500010022	1	S	5	53		72.758	323.227	36.541106	-121.90882	.698	ML	1	CARMEL VALLEY RD HWY 1 NB VDS ML	1
500010031	1	N	5	53		73.726	324.261	36.554647	-121.910926	.831	ML	2	OCEAN AVE HWY 1 NB VDS MLNB NB	1
500010032	1	S	5	53		73.727	324.196	36.55466	-121.910928	.831	ML	1	OCEAN AVE HWY 1 NB VDS MLSB SB	1
500010041	1	N	5	53		74.419	324.954	36.56444	-121.911973	.62	ML	2	CARPENTER RD HWY 1 NB VDS MLNB N	1
500010042	1	S	5	53		74.42	324.889	36.564468	-121.911943	.62	ML	2	CARPENTER RD HWY 1 NB VDS MLSB S	1
500010051	1	N	5	53		74.968	325.503	36.572329	-121.91279	.567	ML	2	HWY 68 WEST AT HWY 1 NB VDS MLNB	1
500010052	1	S	5	53		74.969	325.438	36.572437	-121.913036	.567	ML	2	HWY 68 WEST AT HWY 1 NB VDS MLSB	1
500010053	1	S	5	53		74.97	325.439	36.572452	-121.913037		OR	1	HWY 68 WEST AT HWY 1 NB VDS ONSB	1
500010061	1	N	5	53	48872	R75.553	326.088	36.578638	-121.906469		FR	1	MUNRAS RD HWY 1 NB VDS OFNB NB	1
500010062	1	N	5	53	48872	R75.554	326.089	36.578647	-121.906454	.622	ML	2	MUNRAS RD HWY 1 NB VDS MLNB NB	1
500010063	1	S	5	53	48872	R75.555	326.024	36.578805	-121.906571	.62	ML	2	MUNRAS RD HWY 1 NB VDS MLSB SB	1
500010064	1	S	5	53	48872	R75.556	326.025	36.578814	-121.906557		OR	1	MUNRAS RD HWY 1 NB VDS ONSB SB	1
500010071	1	S	5	53	48872	R76.209	326.678	36.582629	-121.895968		OR	1	MUNRAS RD HWY 1 SB VDS ONSB SB	1
500010072	1	S	5	53	48872	R76.21	326.679	36.582631	-121.895951	.695	ML	2	MUNRAS RD HWY 1 SB VDS MLSB SB	1
500010073	1	N	5	53	48872	R76.211	326.746	36.58253	-121.895893	.695	ML	2	MUNRAS RD HWY 1 SB VDS MLNB NB	1
500010074	1	N	5	53	48872	R76.212	326.747	36.582533	-121.895876		OR	1	MUNRAS RD HWY 1 SB VDS ONNB NB	1
500010081	1	N	5	53	48872	R76.945	327.48	36.585654	-121.883694	.711	ML	2	SOUTH OF AQUAJITO RD HWY 1 NB VD	1
500010082	1	S	5	53	48872	R76.946	327.415	36.585861	-121.883779	.711	ML	2	SOUTH OF AQUAJITO RD HWY 1 NB VD	1
500010091	1	S	5	53	48872	R77.631	328.1	36.593413	-121.876694		FR	2	SLOAT AVE HWY 1 SB VDS OFSB SB	1
500010092	1	S	5	53	48872	R77.632	328.101	36.593416	-121.876677	.539	ML	2	SLOAT AVE HWY 1 SB VDS MLSB SB	1
500010093	1	N	5	53	48872	R77.633	328.168	36.593216	-121.876628	.539	ML	2	SLOAT AVE HWY 1 SB VDS MLNB NB	1
500010094	1	N	5	53	48872	R77.634	328.169	36.593221	-121.87661		OR	2	SLOAT AVE HWY 1 SB VDS ONNB NB	1
500010101	1	N	5	53	48872	R78.023	328.558	36.594593	-121.869761	.339	ML	2	SOUTH OF HWY 68 EAST AT HWY 1 NB	1
500010102	1	S	5	53	48872	R78.024	328.493	36.594697	-121.869852	.339	ML	2	SOUTH OF HWY 68 EAST AT HWY 1 NB	1
500010111	1	S	5	53	48872	R78.311	328.78	36.597342	-121.866056	.26	ML	3	NORTH OF HWY 68 EAST AT HWY 1 SB	1
500010112	1	N	5	53	48872	R78.312	328.847	36.59721	-121.86585	.261	ML	3	NORTH OF HWY 68 EAST AT HWY 1 SB	1
500010121	1	S	5	53	48872	R78.546	329.015	36.600103	-121.86363	.353	ML	2	CASA VERDE WAY HWY 1 SB VDS MLSB	1
500010122	1	N	5	53	48872	R78.547	329.082	36.600023	-121.863401	.353	ML	2	CASA VERDE WAY HWY 1 SB VDS MLNB	1
500010123	1	N	5	53	48872	R78.548	329.083	36.600035	-121.863391		OR	1	CASA VERDE WAY HWY 1 SB VDS ONNB	1
500010131	1	S	5	53	70742	R79.018	329.487	36.606398	-121.86105		FR	1	NORTH OF DEL MONTE AVE HWY 1 SB	1
500010132	1	S	5	53	70742	R79.019	329.488	36.606412	-121.861049	.497	ML	2	NORTH OF DEL MONTE AVE HWY 1 SB	1
500010133	1	N	5	53	70742	R79.02	329.555	36.606429	-121.860759	.496	ML	3	NORTH OF DEL MONTE AVE HWY 1 SB	1
500010141	1	N	5	53	65112	R79.539	330.074	36.611927	-121.855044		OR	1	CANYON DEL REY BLVD AT HWY 1 NB	1
500010142	1	N	5	53	65112	R79.54	330.075	36.611936	-121.85503	.719	ML	2	CANYON DEL REY BLVD AT HWY 1 NB	1
500010143	1	S	5	53	65112	R79.541	330.01	36.612005	-121.855285	.72	ML	2	CANYON DEL REY BLVD AT HWY 1 NB	1
500010144	1	S	5	53	65112	R79.542	330.011	36.612016	-121.855272		FR	1	CANYON DEL REY BLVD AT HWY 1 NB	1
500010151	1	N	5	53	70742	R80.458	330.993	36.622405	-121.845191		FR	1	SOUTH OF FREMONT BLVD AT HWY 1 N	1
500010152	1	N	5	53	70742	R80.459	330.994	36.622416	-121.845181	.749	ML	2	SOUTH OF FREMONT BLVD AT HWY 1 N	1
500010153	1	S	5	53	70742	R80.46	330.929	36.622494	-121.845397	.748	ML	2	SOUTH OF FREMONT BLVD AT HWY 1 N	1
500011011	1	S	5	53		R81.039	331.508	36.628201	-121.838291	.559	ML	3	NORTH OF FREMONT HWY 1 SB VDS ML	1
500011012	1	N	5	53		R81.04	331.575	36.628179	-121.838021	.559	ML	3	NORTH OF FREMONT HWY 1 SB VDS ML	1
500011021	1	N	5	53		R81.577	332.112	36.634425	-121.832281	.858	ML	3	MIDPOINT HWY 1 NB VDS MLNB NB	1
500011022	1	S	5	53		R81.578	332.047	36.63447	-121.832614	.87	ML	3	MIDPOINT HWY 1 NB VDS MLSB SB	1
500011031	1	N	5	53		R82.778	333.29	36.64589	-121.816689		FR	1	LIGHTFIGHTER DR HWY 1 NB VDS OFN	1
500011032	1	N	5	53		R82.779	333.291	36.645899	-121.816675	1.357	ML	3	LIGHTFIGHTER DR HWY 1 NB VDS MLN	1
500011033	1	S	5	53		R82.78	333.249	36.645941	-121.817102	1.37	ML	3	LIGHTFIGHTER DR HWY 1 NB VDS MLS	1
500011034	1	S	5	53		R82.781	333.25	36.64595	-121.817089		FR	1	LIGHTFIGHTER DR HWY 1 NB VDS OFS	1
500011041	1	N	5	53		R84.315	334.827	36.667246	-121.814121		FR	1	IMJIN PARKWAY HWY 1 NB VDS OFNB	1
500011042	1	N	5	53		R84.316	334.828	36.667259	-121.814114	1.105	ML	3	IMJIN PARKWAY HWY 1 NB VDS MLNB	1
500011043	1	S	5	53		R84.317	334.786	36.6672	-121.814481	1.106	ML	3	IMJIN PARKWAY HWY 1 NB VDS MLSB	1
500011044	1	S	5	53		R84.318	334.787	36.667213	-121.814473		FR	1	IMJIN PARKWAY HWY 1 NB VDS OFSB	1
500011051	1	N	5	53		R84.99	335.502	36.675811	-121.808283		FR	2	DEL MONTE BLVD SOUTH HWY 1 NB VD	1
500011052	1	N	5	53		R84.991	335.503	36.675824	-121.808276	1.19	ML	2	DEL MONTE BLVD SOUTH HWY 1 NB VD	1
500011053	1	S	5	53	45778	R84.992	335.461	36.67579	-121.808715	1.189	ML	2	DEL MONTE BLVD SOUTH HWY 1 NB VD	1
500011054	1	S	5	53	45778	R84.993	335.462	36.675803	-121.808707		OR	1	DEL MONTE BLVD SOUTH HWY 1 NB VD	1
500011061	1	S	5	53		R86.695	337.164	36.699651	-121.803406		FR	1	RESERVATION RD HWY 1 SB VDS OFSB	1
500011062	1	S	5	53		R86.696	337.165	36.699664	-121.803399	1.793	ML	2	RESERVATION RD HWY 1 SB VDS MLSB	1
500011063	1	N	5	53	45778	R86.697	337.209	36.699496	-121.803031	1.793	ML	2	RESERVATION RD HWY 1 SB VDS MLNB	1
500011064	1	N	5	53	45778	R86.698	337.21	36.699509	-121.803024		OR	1	RESERVATION RD HWY 1 SB VDS ONNB	1
500011071	1	N	5	53		R88.576	339.088	36.724227	-121.790037		OR	1	DEL MONTE BLVD NORTH HWY 1 NB VD	1
500011072	1	N	5	53		R88.577	339.089	36.724239	-121.790028	1.832	ML	2	DEL MONTE BLVD NORTH HWY 1 NB VD	1
500011073	1	S	5	53		R88.578	339.047	36.724645	-121.790202	1.834	ML	2	DEL MONTE BLVD NORTH HWY 1 NB VD	1
500011081	1	N	5	53		R90.361	340.873	36.745281	-121.771383		OR	1	NASHUA RD HWY 1 NB VDS ONNB NB	1
500011082	1	N	5	53		R90.362	340.874	36.745293	-121.771374	1.079	ML	2	NASHUA RD HWY 1 NB VDS MLNB NB	1
500011083	1	S	5	53		R90.363	340.832	36.74546	-121.771718	.892	ML	2	NASHUA RD HWY 1 NB VDS MLSB	1
500011084	1	S	5	53		R90.364	340.833	36.745472	-121.771709	.255	ML	3	NASHUA RD VDS MLSB3	1
500011091	1	N	5	53		R90.735	341.247	36.74982	-121.767689		FR	2	HWY 156 AT HWY 1 NB VDS OFNB NB	1
500011092	1	N	5	53		R90.736	341.248	36.749832	-121.767679	.891	ML	2	HWY 156 AT HWY 1 NB VDS MLNB NB	1
500011101	1	S	5	53		R90.873	341.342	36.751712	-121.767239		OR	2	HWY 156 AT HWY 1 SB VDS ONSB SB	1
500011102	1	S	5	53		R90.874	341.343	36.751725	-121.76723	.89	ML	2	HWY 156 AT HWY 1 SB VDS MLSB SB	1
500011111	1	N	5	53		T92.143	342.655	36.770203	-121.765218		FR	1	HWY 183 AT HWY 1 NB VDS OFNB NB	1
500011112	1	N	5	53		T92.144	342.656	36.77022	-121.765221	1.121	ML	1	HWY 183 AT HWY 1 NB VDS MLNB NB	1
500011113	1	S	5	53		T92.145	342.614	36.770227	-121.765321	1.053	ML	1	HWY 183 AT HWY 1 NB VDS MLSB SB	1
500011121	1	N	5	53		94.386	343.491	36.780229	-121.777463	.811	ML	1	MOLERA RD HWY 1 NB VDS MLNB NB	1
500011122	1	N	5	53		94.387	343.492	36.780241	-121.777478		FR	1	MOLERA RD HWY 1 NB VDS OFNB NB	1
500011123	1	S	5	53		94.388	343.45	36.780157	-121.77757	.812	ML	1	MOLERA RD HWY 1 NB VDS MLSB SB	1
500011131	1	N	5	53		95.175	344.28	36.790626	-121.783337	.712	ML	1	POTRERO RD HWY 1 NB VDS MLNB NB	1
500011132	1	N	5	53		95.176	344.281	36.79064	-121.783342		FR	1	POTRERO RD HWY 1 NB VDS OFNB NB	1
500011133	1	S	5	53		95.177	344.239	36.790632	-121.783446	.71	ML	1	POTRERO RD HWY 1 NB VDS MLSB SB	1
500011141	1	S	5	53		95.81	344.872	36.799869	-121.783294	.621	ML	1	MOSS LANDING RD HWY 1 SB VDS MLS	1
500011142	1	N	5	53		95.811	344.916	36.799888	-121.783158		OR	1	MOSS LANDING RD HWY 1 SB VDS ONN	1
500011143	1	N	5	53		95.812	344.917	36.799902	-121.78316	.621	ML	1	MOSS LANDING RD HWY 1 SB VDS MLN	1
500011151	1	N	5	53		96.418	345.523	36.808654	-121.784129	1.191	ML	1	ELKHORN SLOUGH HWY 1 NB VDS MLNB	1
500011152	1	S	5	53		96.419	345.481	36.808674	-121.784243	1.191	ML	1	ELKHORN SLOUGH HWY 1 NB VDS MLSB	1
500011211	1	S	5	53		98.193	347.255	36.828909	-121.772128	1.423	ML	1	STRUVE RD HWY 1 SB VDS MLSB SB	1
500011212	1	N	5	53		98.194	347.299	36.828897	-121.77196	1.424	ML	1	STRUVE RD HWY 1 SB VDS MLNB NB	1
500011221	1	S	5	53		99.265	348.327	36.844276	-121.771089	1.423	ML	1	NORTH OF SPRINGFIELD RD HWY 1 SB	1
500011222	1	N	5	53		99.266	348.371	36.844294	-121.771	1.423	ML	1	NORTH OF SPRINGFIELD RD HWY 1 SB	1
500011231	1	S	5	53		T101.038	350.1	36.869765	-121.770071		OR	1	SALINAS RD HWY 1 SB VDS ONSB SB	1
500011232	1	S	5	53		T101.039	350.101	36.869779	-121.770072	1.14	ML	2	SALINAS RD HWY 1 SB VDS MLSB SB	1
500011233	1	N	5	53		T101.04	350.145	36.869807	-121.770107	1.139	ML	2	SALINAS RD HWY 1 SB VDS MLNB NB	1
500011241	1	N	5	53		R101.544	350.649	36.87698	-121.77097	.803	ML	2	TRAFTON RD HWY 1 NB VDS MLNB NB	1
500011242	1	S	5	53		R101.545	350.607	36.876938	-121.77121	.846	ML	2	TRAFTON RD HWY 1 NB VDS MLSB SB	1
500013011	1	N	5	87	83668	R0.877999999999986	352.014	36.89652	-121.775302		FR	1	HWY 129 AT HWY 1 NB VDS OFNB NB	1
500013012	1	N	5	87	83668	R0.879000000000019	352.015	36.896533	-121.775311	1.07	ML	2	HWY 129 AT HWY 1 NB VDS MLNB NB	1
500013013	1	S	5	87	83668	R0.879999999999995	351.973	36.896496	-121.775542	1.027	ML	2	HWY 129 AT HWY 1 NB VDS MLSB SB	1
500013014	1	S	5	87	83668	R0.881000000000029	351.974	36.896509	-121.77555		OR	1	HWY 129 AT HWY 1 NB VDS ONSB SB	1
500013021	1	S	5	87		R1.387	352.48	36.903011	-121.779713		FR	1	HWY 129 AT HWY 1 SB VDS OFSB SB	1
500013022	1	S	5	87		R1.38799999999998	352.481	36.903024	-121.779721	.773	ML	2	HWY 129 AT HWY 1 SB VDS MLSB SB	1
500013023	1	N	5	87		R1.38901	352.525	36.903101	-121.779519	.773	ML	2	HWY 129 AT HWY 1 SB VDS MLNB NB	1
500013031	1	N	5	87		R2.425	353.561	36.916454	-121.788076	1.005	ML	2	HARKINS SLOUGH RD HWY 1 NB VDS M	1
500013032	1	S	5	87		R2.4259	353.519	36.916366	-121.78828	1.005	ML	2	HARKINS SLOUGH RD HWY 1 NB VDS M	1
500013033	1	S	5	87		R2.42702	353.52	36.916379	-121.788288		OR	1	HARKINS SLOUGH RD HWY 1 NB VDS O	1
500013041	1	S	5	87		R3.3969	354.49	36.92632	-121.800206		FR	1	HWY 152 AT HWY 1 SB VDS OFSB SB	1
500013042	1	S	5	87		R3.39802	354.491	36.926329	-121.800221	1.048	ML	2	HWY 152 AT HWY 1 SB VDS MLSB SB	1
500013043	1	N	5	87		R3.399	354.535	36.926518	-121.800066	1.049	ML	2	HWY 152 AT HWY 1 SB VDS MLNB NB	1
500013051	1	S	5	87		R4.5219	355.615	36.933533	-121.817904	.962	ML	2	BUENA VISTA DR HWY 1 SB VDS MLSB	1
500013052	1	N	5	87		R4.52302	355.659	36.933761	-121.817739	.962	ML	3	BUENA VISTA DR HWY 1 SB VDS MLNB	1
500013061	1	S	5	87		R5.322	356.415	36.937393	-121.830893	1.107	ML	2	MIDPOINT HWY 1 SB VDS MLSB SB	1
500013062	1	N	5	87		R5.32298	356.459	36.937899	-121.8305	1.106	ML	3	MIDPOINT HWY 1 SB VDS MLNB NB	1
500013071	1	N	5	87		R6.73501	357.871	36.950319	-121.851566	1.143	ML	2	MAR MONTE AVE AT HWY 1 NB VDS ML	1
500013072	1	S	5	87		R6.7359	357.829	36.950001	-121.851752	1.143	ML	3	MAR MONTE AVE AT HWY 1 NB VDS ML	1
500013081	1	N	5	87		R7.608	358.744	36.959977	-121.861657	.642	ML	2	MAR MONTE AVE AT HWY 1 NB VDS ML	1
500013082	1	S	5	87		R7.60898	358.702	36.959769	-121.861874	.642	ML	3	MAR MONTE AVE AT HWY 1 NB VDS ML	1
500013091	1	N	5	87		R8.01901	359.155	36.964522	-121.866408	.353	ML	2	LARKIN VALLEY RD HWY 1 NB VDS ML	1
500013092	1	S	5	87		R8.0198	359.113	36.96436	-121.866653	.352	ML	2	LARKIN VALLEY RD HWY 1 NB VDS ML	1
500013101	1	N	5	87		8.10899999999998	359.45	36.967826	-121.869774	.443	ML	2	FREEDOM BLVD HWY 1 NB VDS MLNB N	1
500013102	1	S	5	87		8.11000000000001	359.408	36.967672	-121.870057	.441	ML	2	FREEDOM BLVD HWY 1 NB VDS MLSB S	1
500013111	1	S	5	87		8.699	359.997	36.972399	-121.878729	.451	ML	2	FREEDOM BLVD AT HWY 1 SB VDS MLS	1
500013112	1	N	5	87		8.7012	360.042	36.972531	-121.878642	.452	ML	2	FREEDOM BLVD AT HWY 1 SB VDS MLN	1
500013121	1	N	5	87		9.012	360.353	36.974342	-121.883855		FR	1	RIO DEL MAR BLVD AT HWY 1 NB VDS	1
500013122	1	N	5	87		9.01298	360.354	36.974348	-121.883872	.426	ML	2	RIO DEL MAR BLVD AT HWY 1 NB VDS	1
500013123	1	S	5	87		9.0141	360.312	36.974214	-121.883973	.426	ML	2	RIO DEL MAR BLVD AT HWY 1 NB VDS	1
500013124	1	S	5	87		9.01499	360.313	36.97422	-121.88399		OR	1	RIO DEL MAR BLVD AT HWY 1 NB VDS	1
500013131	1	S	5	87		9.5522	360.85	36.975165	-121.8935	.653	ML	2	RIO DEL MAR BLVD AT HWY 1 SB VDS	1
500013132	1	N	5	87		9.553	360.894	36.975268	-121.893445	.652	ML	2	RIO DEL MAR BLVD AT HWY 1 SB VDS	1
500013141	1	N	5	87		10.318	361.659	36.976345	-121.907001	.609	ML	2	STATE PARK DR AT HWY 1 NB VDS ML	1
500013142	1	S	5	87		10.319	361.617	36.976222	-121.907143	.61	ML	2	STATE PARK DR AT HWY 1 NB VDS ML	1
500013151	1	S	5	87		10.772	362.07	36.979813	-121.914036	.565	ML	2	STATE PARK DR AT HWY 1 SB VDS ML	1
500013152	1	N	5	87		10.773	362.114	36.979956	-121.91393	.565	ML	2	STATE PARK DR AT HWY 1 SB VDS ML	1
500014011	1	N	5	87		11.448	362.789	36.98308	-121.925417	.553	ML	2	PARK AVE NEXT EXIT SIGN HWY 1 NB	1
500014012	1	S	5	87		11.449	362.747	36.982938	-121.92552	.553	ML	2	PARK AVE NEXT EXIT SIGN HWY 1 NB	1
500014021	1	N	5	87		11.879	363.22	36.984028	-121.933172	.445	ML	2	PARK AVE AT HWY 1 NB VDS MLNB NB	1
500014022	1	S	5	87		11.88	363.178	36.983854	-121.933254	.443	ML	2	PARK AVE AT HWY 1 NB VDS MLSB SB	1
500014031	1	S	5	87	11040	12.337	363.635	36.983902	-121.941551	.576	ML	2	PARK AVE AT HWY 1 SB VDS MLSB SB	1
500014032	1	N	5	87	11040	12.338	363.679	36.98406	-121.941535	.576	ML	2	PARK AVE AT HWY 1 SB VDS MLNB NB	1
500014041	1	N	5	87	11040	13.032	364.373	36.983544	-121.954147	.471	ML	2	BAY AVE / PORTER ST AT HWY 1 NB	1
500014042	1	S	5	87	11040	13.033	364.331	36.98343	-121.954157	.471	ML	2	BAY AVE / PORTER ST AT HWY 1 NB	1
500014051	1	S	5	87	11040	13.278	364.576	36.98302	-121.958493		FR	1	BAY AVE / PORTER ST AT HWY 1 SB	1
500014052	1	S	5	87	11040	13.279	364.577	36.983018	-121.95851	.291	ML	2	BAY AVE / PORTER ST AT HWY 1 SB	1
500014053	1	N	5	87		13.28	364.621	36.983147	-121.958547	.291	ML	2	BAY AVE / PORTER ST AT HWY 1 SB	1
500014054	1	N	5	87		13.281	364.622	36.983145	-121.958564		OR	1	BAY AVE / PORTER ST AT HWY 1 SB	1
500014061	1	S	5	87		13.613	364.911	36.982686	-121.964243		OR	1	41ST ST OC AT HWY 1 SB VDS ONSB	1
500014062	1	S	5	87		13.614	364.912	36.982687	-121.964261	.324	ML	2	41ST ST OC AT HWY 1 SB VDS MLSB	1
500014063	1	N	5	87		13.615	364.956	36.982848	-121.964293	.324	ML	2	41ST ST OC AT HWY 1 SB VDS MLNB	1
500014064	1	N	5	87		13.616	364.957	36.982849	-121.964311		OR	1	41ST ST OC AT HWY 1 SB VDS ONNB	1
500014071	1	S	5	87		13.928	365.226	36.983036	-121.969917	.398	ML	2	41ST ST EXIT AT HWY 1 SB VDS MLS	1
500014072	1	N	5	87		13.929	365.27	36.983207	-121.969927	.397	ML	2	41ST ST EXIT AT HWY 1 SB VDS MLN	1
500014081	1	N	5	87		14.409	365.75	36.985169	-121.978252	.536	ML	2	SOQUEL DR NEXT EXIT SIGN HWY 1 N	1
500014082	1	S	5	87		14.41	365.708	36.985023	-121.978295	.536	ML	2	SOQUEL DR NEXT EXIT SIGN HWY 1 N	1
500014091	1	S	5	87	69112	15	366.298	36.987467	-121.988544	.578	ML	2	SOQUEL AVE AT HWY 1 SB VDS MLSB	1
500014092	1	N	5	87	69112	15.001	366.342	36.987544	-121.988535	.803	ML	2	SOQUEL AVE AT HWY 1 SB VDS MLNB	1
500014093	1	N	5	87	69112	15.002	366.343	36.987546	-121.988553		OR	1	SOQUEL AVE AT HWY 1 SB VDS ONNB	1
500014094	1	S	5	87	69112	15	366.298	36.987467	-121.988544		FR	1	SOQUEL AVE AT HWY 1 SB VDS OFSB	1
500014101	1	N	5	87	69112	15.582	366.923	36.988313	-121.998987		FR	1	EAST OF MORRISSEY BLVD AT HWY 1	1
500014102	1	S	5	87	69112	15.583	366.881	36.988133	-121.99904	.225	ML	2	EAST OF MORRISSEY BLVD AT HWY 1	1
500014103	1	S	5	87	69112	15.565	366.863	36.98813	-121.998715	.291	ML	3	EAST OF MORRISSEY BLVD AT HWY 1	1
500014111	1	N	5	87	69112	16.014	367.355	36.988447	-122.006802	.663	ML	3	WEST OF MORRISSEY BLVD AT HWY 1	1
500014112	1	S	5	87	69112	16.015	367.313	36.988313	-122.006837	.372	ML	3	WEST OF MORRISSEY BLVD AT HWY 1	1
500014113	1	S	5	87	69112	16.016	367.314	36.988313	-122.006855		FR	1	WEST OF MORRISSEY BLVD AT HWY 1	1
500014121	1	N	5	87	69112	16.327	367.668	36.988674	-122.012474	.352	ML	3	EAST OF EMELINE DR AT HWY 1 NB V	1
500014122	1	S	5	87	69112	16.328	367.626	36.988555	-122.012505	.352	ML	3	EAST OF EMELINE DR AT HWY 1 NB V	1
500014131	1	N	5	87	69112	16.718	368.059	36.989419	-122.019961		FR	1	BEGIN HWY 17 NB AND HWY 1 NB SEP	1
500014132	1	N	5	87	69112	16.719	368.06	36.989422	-122.019984	2.696	ML	2	BEGIN HWY 17 NB AND HWY 1 NB SEP	1
500014133	1	S	5	87	69112	16.72	368.018	36.989141	-122.019205	.401	ML	2	BEGIN HWY 17 NB AND HWY 1 NB SEP	1
500014134	1	S	5	87	69112	16.721	368.019	36.98914	-122.019218		OR	2	BEGIN HWY 17 NB AND HWY 1 NB SEP	1
500014141	1	S	5	87	69112	17.131	368.429	36.986601	-122.023277		FR	1	BEGIN HWY 17 NB AND HWY 1 SB SEP	1
500014142	1	S	5	87	69112	17.1315	368.429	36.986601	-122.023277	2.705	ML	1	BEGIN HWY 17 NB AND HWY 1 SB SEP	1
500017011	17	N	5	87	69112	0.068	.068	36.990671	-122.02102	.273	ML	2	NORTH OF FISHHOOK BRIDGE HWY 17	1
500017012	17	S	5	87	69112	0.069	.069	36.991464	-122.020575	.274	ML	2	NORTH OF FISHHOOK BRIDGE HWY 17	1
500017013	17	S	5	87	69112	0.07	.07	36.991475	-122.020566		OR	2	NORTH OF FISHHOOK BRIDGE HWY 17	1
500017021	17	N	5	87		0.478	.478	36.99604	-122.019621	2.705	ML	3	PASATIEMPO DR HWY 17 NB VDS MLNB	1
500017022	17	S	5	87		0.479	.479	36.996341	-122.020022	2.705	ML	2	PASATIEMPO DR HWY 17 NB VDS MLSB	1
500017023	17	S	5	87		0.48	.48	36.996352	-122.020031		OR	1	PASATIEMPO DR HWY 17 NB VDS ONSB	1
500017101	17	S	5	87		9.611	9.611	37.106455	-121.975817	3.326	ML	2	LAUREL RD HWY 17 SB VDS MLSB SB	1
500017102	17	N	5	87		9.661	9.661	37.106926	-121.976301	3.301	ML	2	LAUREL RD HWY 17 SB VDS MLNB NB	1
500017201	17	N	5	87		11.264	11.264	37.126914	-121.974674	2.137	ML	2	OLD SANTA CRUZ HWY VDS MLNB	1
500017202	17	S	5	87		11.262	11.262	37.126842	-121.974766	2.163	ML	2	OLD SCR HWY VDS MLSB	1
501010012	101	N	5	83		0.956000000000003	84.019	34.385801	-119.489561	1.281	ML	3	HWY 150 AT 101 NB VDS MLNB NB	1
501010013	101	S	5	83		0.957000000000008	83.993	34.385615	-119.489724	1.255	ML	3	HWY 150 AT 101 NB VDS MLSB SB	1
501010014	101	S	5	83		0.957999999999998	83.994	34.38562	-119.48974		FR	1	HWY 150 AT 101 NB VDS OFSB SB	1
501010021	101	N	5	83	11446	1.818	84.741	34.389581	-119.501337		OR	1	BAILARD AVE 101 NB VDS ONNB NB	1
501010022	101	N	5	83	11446	1.819	84.742	34.389586	-119.501353	1.268	ML	2	BAILARD AVE 101 NB VDS MLNB NB	1
501010023	101	S	5	83	11446	1.82000000000001	84.716	34.389386	-119.501526	.693	ML	3	BAILARD AVE 101 NB VDS MLSB SB	1
501010024	101	S	5	83	11446	1.821	84.717	34.389391	-119.501542		FR	1	BAILARD AVE 101 NB VDS OFSB SB	1
501010031	101	S	5	83	11446	2.485	85.381	34.394996	-119.510418	.333	ML	3	CASSITAS PASS RD 101 SB VDS MLSB	1
501010032	101	S	5	83	11446	2.486	85.382	34.395009	-119.510426	.285	ML	3	CASSITAS PASS RD 101 SB VDS MLNB	1
501010041	101	S	5	83	11446	3.05500000000001	85.951	34.401168	-119.516708		FR	1	LINDEN AVE 101 SB VDS OFSB SB	1
501010042	101	S	5	83	11446	3.056	85.952	34.401174	-119.516724	.286	ML	3	LINDEN AVE 101 SB VDS MLSB SB	1
501010043	101	S	5	83	11446	3.057	85.953	34.40118	-119.516739	.42	ML	3	LINDEN AVE 101 SB VDS MLNB NB	1
501010044	101	S	5	83	11446	3.05500000000001	85.951	34.401168	-119.516708		OR	1	LINDEN AVE 101 SB VDS ONNB NB	1
501010051	101	S	5	83	11446	3.63200000000001	86.528	34.403233	-119.526471		FR	1	REYNOLDS AVE 101 SB VDS OFSB	1
501010052	101	N	5	83	11446	3.63300000000001	86.556	34.403381	-119.526417	.907	ML	3	REYNOLDS AVE 101 SB VDS MLSB	1
501010053	101	N	5	83	11446	3.63300000000001	86.556	34.403381	-119.526417	.131	ML	3	REYNOLDS AVE 101 SB VDS MLNB	1
501010061	101	N	5	83	11446	3.89500000000001	86.818	34.404247	-119.53088	.5	ML	3	SANTA MONICA RD 101 NB VDS MLNB	1
501010062	101	S	5	83	11446	3.896	86.792	34.404094	-119.53097	.787	ML	3	SANTA MONICA RD 101 NB VDS MLSB	1
501010071	101	S	5	83		4.63200000000001	87.528	34.405913	-119.543612	.787	ML	3	SANTA CLAUS LANE MLSB	1
501010072	101	N	5	83	11446	4.63300000000001	87.556	34.406056	-119.543567	1.278	ML	3	SANTA CLAUS LANE MLNB	1
501010081	101	N	5	83		5.469	88.392	34.412716	-119.555409		OR	1	SOUTH PADARO LANE ONNB	1
501010082	101	S	5	83		5.469	88.365	34.412563	-119.555471	.418	ML	3	SOUTH PADARO LANE MLNB	1
501010083	101	S	5	83		5.469	88.365	34.412563	-119.555471	.492	ML	3	SOUTH PADARO LANE MLSB	1
501010091	101	N	5	83		6.452	89.375	34.416284	-119.570889	1.334	ML	3	TORO CANYON 101 NB VDS MLNB NB	1
501010092	101	S	5	83		6.453	89.349	34.41608	-119.570998	.917	ML	3	TORO CANYON 101 NB VDS MLSB SB	1
501010101	101	N	5	83		7.301	90.224	34.417095	-119.585509		OR	1	NORTH PADARO LANE 101 NB VDS ONN	1
501010102	101	N	5	83		7.30200000000001	90.225	34.417097	-119.585526	.805	ML	3	NORTH PADARO LANE 101 NB VDS MLN	1
501010103	101	S	5	83		7.303	90.199	34.416921	-119.585632	.804	ML	3	NORTH PADARO LANE 101 NB VDS MLS	1
501010104	101	N	5	83		7.301	90.224	34.417095	-119.585509		FR	1	NORTH PADARO LANE 101 NB VDS OFS	1
501010111	101	N	5	83		8.06	90.983	34.420593	-119.598044		FR	1	EVANS AVE 101 NB VDS OFNB NB	1
501010112	101	N	5	83		8.06100000000001	90.984	34.420599	-119.59806	.775	ML	3	EVANS AVE 101 NB VDS MLNB NB	1
501010113	101	S	5	83		8.062	90.958	34.420459	-119.598167	.775	ML	3	EVANS AVE 101 NB VDS MLSB SB	1
501010121	101	N	5	83		8.86	91.775	34.421647	-119.611628		FR	1	SHEFFIELD DR OFNB	1
501010122	101	N	5	83		8.861	91.776	34.42165	-119.611645	.985	ML	2	SHEFFIELD DR MLNB	1
501010123	101	S	5	83		8.86200000000001	91.75	34.42143	-119.611749	.985	ML	3	SHEFFIELD DR MLSB	1
501010124	101	S	5	83		8.86200000000001	91.75	34.42143	-119.611749		OR	1	SHEFFIELD DR ONSB	1
501010131	101	N	5	83		10.039	92.954	34.422592	-119.631871	.772	ML	2	SAN YSIDRO RD 101 NB VDS MLNB NB	1
501010132	101	S	5	83		10.04	92.928	34.422455	-119.632021	.773	ML	2	SAN YSIDRO RD 101 NB VDS MLSB SB	1
501010141	101	N	5	83		10.405	93.32	34.421907	-119.638063		FR	1	OLIVE MILL RD 101 NB VDS OFNB NB	1
501010142	101	N	5	83		10.406	93.321	34.421899	-119.638078	.519	ML	2	OLIVE MILL RD 101 NB VDS MLNB NB	1
501010143	101	S	5	83		10.407	93.295	34.421678	-119.638211	.52	ML	2	OLIVE MILL RD 101 NB VDS MLSB SB	1
501010144	101	S	5	83		10.408	93.296	34.421672	-119.638227		OR	1	OLIVE MILL RD 101 NB VDS ONSB SB	1
501010151	101	N	5	83	69070	11.078	93.993	34.421065	-119.649021		FR	1	HERMOSILLO RD 101 NB VDS OFNB NB	1
501010152	101	N	5	83	69070	11.079	93.994	34.421069	-119.649038	.627	ML	2	HERMOSILLO RD 101 NB VDS MLNB NB	1
501010153	101	S	5	83	69070	11.08	93.968	34.420929	-119.649181	.471	ML	2	HERMOSILLO RD 101 NB VDS MLSB SB	1
501011021	101	S	5	83	69070	11.35	94.238	34.422089	-119.653695	.291	ML	3	CABRILLO BLVD 101 SB PM 94.26 VD	1
501011031	101	N	5	83	69070	11.66	94.575	34.423175	-119.65874		OR	1	CABRILLO BLVD 101 NB PM 94.57 VD	1
501011032	101	N	5	83	69070	11.661	94.576	34.423175	-119.658758	.439	ML	2	CABRILLO BLVD 101 NB PM 94.57 VD	1
501011041	101	S	5	83	69070	11.662	94.55	34.422964	-119.658994	.304	ML	3	CABRILLO BLVD SB 101 PM 94.57 VD	1
501011051	101	N	5	83	69070	11.957	94.872	34.422056	-119.663735	.265	ML	3	SALINAS ST NB 101 VDS MLNB NB	1
501011052	101	S	5	83	69070	11.958	94.846	34.421853	-119.663977	.266	ML	3	SALINAS ST NB 101 VDS MLSB SB	1
501011061	101	N	5	83	69070	12.192	95.107	34.420979	-119.667635	.228	ML	3	MILPAS 1/4 MILE SIGN NB 101 VDS	1
501011062	101	S	5	83	69070	12.193	95.081	34.42076	-119.667872	.228	ML	3	MILPAS 1/4 MILE SIGN NB 101 VDS	1
501011071	101	N	5	83	69070	12.413	95.328	34.420057	-119.671327	.25	ML	3	MILPAS ST 101 NB PM 95.323 VDS M	1
501011072	101	S	5	83	69070	12.414	95.302	34.41983	-119.671564	.249	ML	3	MILPAS ST 101 NB PM 95.323 VDS M	1
501011073	101	S	5	83	69070	12.415	95.303	34.41983	-119.671581		OR	1	MILPAS ST 101 NB PM 95.323 VDS O	1
501011081	101	S	5	83	69070	12.692	95.58	34.420282	-119.676372	.37	ML	3	MILPAS ST UC 101 SB PM 95.602 VD	1
501011082	101	N	5	83	69070	12.693	95.608	34.420451	-119.676153	.372	ML	3	MILPAS ST UC 101 SB PM 95.602 VD	1
501011091	101	S	5	83	69070	13.155	96.043	34.419668	-119.684426	.468	ML	3	CESAR CHAVEZ UC 101 SB VDS MLSB	1
501011092	101	N	5	83	69070	13.156	96.071	34.419863	-119.684207	.468	ML	3	CESAR CHAVEZ UC 101 SB VDS MLNB	1
501011101	101	S	5	83	69070	13.627	96.515	34.416609	-119.691393		FR	1	GARDEN ST 101 SB VDS OFSB SB	1
501011102	101	S	5	83	69070	13.628	96.516	34.416598	-119.691404	.38	ML	3	GARDEN ST 101 SB VDS MLSB SB	1
501011103	101	N	5	83	69070	13.629	96.544	34.416972	-119.691316	.378	ML	3	GARDEN ST 101 SB VDS MLNB NB	1
501011104	101	N	5	83	69070	13.63	96.545	34.416961	-119.691328		OR	1	GARDEN ST 101 SB VDS ONNB NB	1
501011111	101	N	5	83	69070	13.914	96.829	34.413933	-119.69468	.398	ML	3	BATH ST 101 NB VDS MLNB NB	1
501011112	101	S	5	83	69070	13.915	96.803	34.413562	-119.694827	.398	ML	3	BATH ST 101 NB VDS MLSB SB	1
501011121	101	S	5	83	69070	14.425	97.313	34.413053	-119.703138	.437	ML	3	CASTILLO ST 101 SB VDS MLSB SB	1
501011122	101	N	5	83	69070	14.426	97.341	34.413169	-119.702923	.438	ML	3	CASTILLO ST 101 SB VDS MLNB NB	1
501011131	101	S	5	83	69070	14.79	97.678	34.416632	-119.707807	.393	ML	3	CARILLO ST UC 101 SB VDS MLSB SB	1
501011132	101	N	5	83	69070	14.791	97.706	34.416721	-119.707607	.392	ML	3	CARILLO ST UC 101 SB VDS MLNB NB	1
501011141	101	N	5	83	69070	15.211	98.126	34.420575	-119.713284	.36	ML	3	ARRELLAGA ST 101 NB VDS MLNB NB	1
501011142	101	S	5	83	69070	15.212	98.1	34.420521	-119.713497	.592	ML	3	ARRELLAGA ST 101 NB VDS MLSB SB	1
501011151	101	N	5	83	69070	15.511	98.426	34.42345	-119.717222	.478	ML	3	MISSION ST 101 NB VDS MLNB NB	1
501012011	101	S	5	83	69070	16.189	99.053	34.4269	-119.72775	.424	ML	3	LAS POSITAS RD 101 SB PM 99.099	1
501012012	101	N	5	83	69070	16.19	99.081	34.427024	-119.727521	.656	ML	3	LAS POSITAS RD 101 SB PM 99.099	1
501012021	101	S	5	83	69070	16.847	99.711	34.428735	-119.739028	.533	ML	3	LAS POSIATAS RD101 SB PM 99.757	1
501012022	101	N	5	83	69070	16.848	99.739	34.42886	-119.738795	.532	ML	3	LAS POSIATAS RD101 SB PM 99.757	1
501012031	101	N	5	83	69070	17.253	100.144	34.431717	-119.744941	.5	ML	3	HOPE AVE 101 NB VDS MLNB NB	1
501012032	101	S	5	83	69070	17.254	100.118	34.431654	-119.74518	.5	ML	3	HOPE AVE 101 NB VDS MLSB SB	1
501012041	101	N	5	83	69070	17.847	100.738	34.437687	-119.752386		FR	1	STATE ST 101 NB PM 100.757 VDS O	1
501012042	101	N	5	83	69070	17.848	100.739	34.437697	-119.752399	.498	ML	3	STATE ST 101 NB PM 100.757 VDS M	1
501012043	101	S	5	83	69070	17.849	100.713	34.437633	-119.752647	.498	ML	4	STATE ST 101 NB PM 100.757 VDS M	1
501012051	101	N	5	83	69070	18.25	101.141	34.441126	-119.757898	.548	ML	3	STATE ST 101 NB PM 101.16 VDS ML	1
501012052	101	S	5	83	69070	18.251	101.115	34.441057	-119.758139	.546	ML	3	STATE ST 101 NB PM 101.16 VDS ML	1
501012061	101	S	5	83		18.942	101.806	34.44095	-119.770203	.746	ML	3	STATE ST 101 SB PM 101.852 VDS M	1
501012062	101	N	5	83		18.943	101.834	34.441104	-119.769976	.746	ML	3	STATE ST 101 SB PM 101.852 VDS M	1
501012063	101	N	5	83		18.944	101.835	34.441106	-119.769993		OR	1	STATE ST 101 SB PM 101.852 VDS O	1
501012071	101	N	5	83		19.744	102.635	34.442158	-119.783847	.68	ML	3	TURNPIKE AVE 101 NB PM 102.654 V	1
501012072	101	S	5	83		19.745	102.609	34.441988	-119.784113	.68	ML	3	TURNPIKE AVE 101 NB PM 102.654 V	1
501012081	101	S	5	83		20.303	103.167	34.441792	-119.793823	.614	ML	3	TURNPIKE AVE 101 SB PM 103.213 V	1
501012082	101	N	5	83		20.304	103.195	34.44193	-119.793576	.614	ML	3	TURNPIKE AVE 101 SB PM 103.213 V	1
501012083	101	S	5	83		20.3035	103.167	34.441792	-119.793823		OR	1	TURNPIKE AVE 101 SB PM 103.213	1
501012091	101	N	5	83		20.973	103.864	34.441743	-119.805266	.638	ML	3	PATTERSON AVE 101 NB PM 103.883	1
501012092	101	S	5	83		20.974	103.838	34.441634	-119.805549	.638	ML	3	PATTERSON AVE 101 NB PM 103.883	1
501012093	101	S	5	83		20.975	103.839	34.441635	-119.805566		OR	1	PATTERSON AVE 101 NB PM 103.883	1
501012101	101	S	5	83		21.581	104.445	34.440979	-119.816071	.577	ML	2	PATTERSON AVE 101 SB PM 104.491	1
501012102	101	N	5	83		21.582	104.473	34.441166	-119.815815	.577	ML	2	PATTERSON AVE 101 SB PM 104.491	1
501012111	101	N	5	83		22.129	105.02	34.440281	-119.825329	.6	ML	3	FAIRVIEW AVE 101 NB PM 105.039 V	1
501012112	101	S	5	83		22.13	104.994	34.440068	-119.82562	.6	ML	3	FAIRVIEW AVE 101 NB PM 105.039 V	1
501012121	101	S	5	83		22.782	105.646	34.439056	-119.836969	.629	ML	2	FAIRVIEW AVE 101 SB PM 105.692 V	1
501012122	101	N	5	83		22.783	105.674	34.439213	-119.836702	.629	ML	2	FAIRVIEW AVE 101 SB PM 105.692 V	1
501012131	101	N	5	83		23.387	106.278	34.438091	-119.847186	.612	ML	2	LOS CARNEROS AVE 101 NB PM 106.2	1
501012132	101	S	5	83		23.388	106.252	34.437905	-119.847485	.611	ML	2	LOS CARNEROS AVE 101 NB PM 106.2	1
501012133	101	S	5	83		23.389	106.253	34.437903	-119.847502		OR	1	LOS CARNEROS AVE 101 NB PM 106.2	1
501012141	101	S	5	83		24.004	106.868	34.436736	-119.858143		FR	1	LOS CARNEROS AVE 101 SB PM 106.9	1
501012142	101	S	5	83		24.005	106.869	34.436733	-119.85816	.861	ML	2	LOS CARNEROS AVE 101 SB PM 106.9	1
501012143	101	N	5	83		24.006	106.897	34.436966	-119.857906	.862	ML	2	LOS CARNEROS AVE 101 SB PM 106.9	1
501012151	101	S	5	83		25.111	107.975	34.43282	-119.876892	1.172	ML	2	GLEN ANNIE AVE 101 SB VDS MLSB S	1
501012152	101	N	5	83		25.112	108.003	34.433001	-119.876613	1.171	ML	2	GLEN ANNIE AVE 101 SB VDS MLNB N	1
501013011	101	N	5	83		26.347	109.238	34.432512	-119.898204		FR	1	WINCHESTER CANYON RD 101 NB VDS	1
501013012	101	N	5	83		26.348	109.239	34.432512	-119.898221	3.118	ML	2	WINCHESTER CANYON RD 101 NB VDS	1
501013013	101	S	5	83		26.349	109.213	34.432347	-119.898539	3.119	ML	2	WINCHESTER CANYON RD 101 NB VDS	1
501013021	101	S	5	83	69070	R15.975	98.863	34.426412	-119.724479		FR	1	PUEBLO ST 101 OFNB	1
501013022	101	S	5	83	69070	R15.974	98.862	34.426409	-119.724462	.095	ML	3	PUEBLO ST 101 MLNB	1
501013023	101	S	5	83	69070	R15.973	98.861	34.426406	-119.724445	.381	ML	3	PUEBLO ST 101 MLSB	1
501013024	101	S	5	83	69070	R15.97	98.858	34.426396	-119.724394		FR	1	PUEBLO ST 101 OFSB	1
501014011	101	S	5	83		83.346	165.983	34.879113	-120.408312	3.141	ML	2	UNION VALLEY PARKWAY 101 SB VDS	1
501014021	101	N	5	83		83.366	166.03	34.879495	-120.40815		OR	1	UNION VALLEY PARKWAY 101 NB VDS	1
501014022	101	N	5	83		83.367	166.031	34.879507	-120.40816	3.131	ML	2	UNION VALLEY PARKWAY 101 NB VDS	1
501014031	101	S	5	83		84.627	167.264	34.895333	-120.418336		FR	1	SANTA MARIA WAY 101 SB VDS OFSB	1
501014032	101	S	5	83		84.628	167.265	34.895348	-120.418336	1.469	ML	2	SANTA MARIA WAY 101 SB VDS MLSB	1
501014033	101	N	5	83		84.629	167.293	34.895329	-120.418037	1.458	ML	3	SANTA MARIA WAY 101 SB VDS MLNB	1
501014041	101	N	5	83		86.283	168.947	34.919428	-120.417764	1.098	ML	3	BETTERAVIA RD 101 NB VDS MLNB NB	1
501014042	101	S	5	83		86.284	168.921	34.919456	-120.418072	1.098	ML	3	BETTERAVIA RD 101 NB VDS MLSB SB	1
501014051	101	S	5	83		86.824	169.461	34.927314	-120.418011	.679	ML	3	BETTERAVIA RD 101 SB VDS MLSB SB	1
501014052	101	N	5	83		86.825	169.489	34.927321	-120.417703	.68	ML	3	BETTERAVIA RD 101 SB VDS MLNB NB	1
501014061	101	S	5	83		87.642	170.279	34.939211	-120.41792	.731	ML	3	STOWELL RD 101 SB VDS MLSB SB	1
501014062	101	N	5	83		87.643	170.307	34.939225	-120.417619	.73	ML	3	STOWELL RD 101 SB VDS MLNB NB	1
501014063	101	N	5	83		87.644	170.308	34.939239	-120.417619		FR	1	STOWELL RD 101 SB VDS OFNB NB	1
501014071	101	N	5	83	69196	88.285	170.949	34.948562	-120.417387	.619	ML	3	MAIN ST HWY 166 WEST AT 101 NB V	1
501014072	101	S	5	83	69196	88.286	170.923	34.948573	-120.417642	.619	ML	3	MAIN ST HWY 166 WEST AT 101 NB V	1
501014081	101	S	5	83	69196	88.88	171.517	34.957195	-120.417646	.774	ML	3	MAIN ST HWY 166 WEST AT 101 SB V	1
501014082	101	N	5	83	69196	88.881	171.545	34.957221	-120.417389	.774	ML	3	MAIN ST HWY 166 WEST AT 101 SB V	1
501014091	101	N	5	83	69196	89.833	172.497	34.969835	-120.424155	1.037	ML	3	DONOVAN RD 101 NB VDS MLNB NB	1
501014092	101	S	5	83	69196	89.834	172.471	34.969822	-120.424474	1.037	ML	3	DONOVAN RD 101 NB VDS MLSB SB	1
501014101	101	S	5	83	69196	90.953	173.59	34.984503	-120.432903	.669	ML	3	BROADWAY HWY 135 101 SB VDS MLSB	1
501014102	101	N	5	83	69196	90.954	173.618	34.984542	-120.432631	.642	ML	3	BROADWAY HWY 135 101 SB VDS MLNB	1
501015031	101	S	5	79		3.45	177.075	35.021743	-120.468446	5	ML	2	SOUTH OF TEFT ST MLSB	1
501015033	101	N	5	79		3.45	177.102	35.021881	-120.468279	5	ML	2	SOUTH OF TEFT ST MLNB	1
501015111	101	S	5	79	2868	13.357	186.892	35.122212	-120.586806		FR	1	GRAND AVE HWY 227 101 SB VDS OFS	1
501015112	101	S	5	79	2868	13.358	186.893	35.122217	-120.586822	2.661	ML	2	GRAND AVE HWY 227 101 SB VDS MLS	1
501015113	101	N	5	79	2868	13.359	186.921	35.1224	-120.586755	2.66	ML	2	GRAND AVE HWY 227 101 SB VDS MLN	1
501015121	101	N	5	79	2868	13.678	187.24	35.123979	-120.592065		FR	1	BRISCO RD 101 NB VDS OFNB NB	1
501015122	101	N	5	79	2868	13.679	187.241	35.123984	-120.592082	.462	ML	2	BRISCO RD 101 NB VDS MLNB NB	1
501015123	101	S	5	79	2868	13.68	187.215	35.123827	-120.59218	.463	ML	2	BRISCO RD 101 NB VDS MLSB SB	1
501015124	101	S	5	79	2868	13.681	187.216	35.123833	-120.592197		FR	1	BRISCO RD 101 NB VDS OFSB SB	1
501015131	101	N	5	79	2868	14.282	187.844	35.128343	-120.601317	.512	ML	2	CAMINO MERCADO 101 NB VDS MLNB N	1
501015132	101	S	5	79	2868	14.283	187.818	35.128203	-120.601411	.512	ML	2	CAMINO MERCADO 101 NB VDS MLSB S	1
501015141	101	N	5	79	2868	14.703	188.265	35.130557	-120.608196		OR	1	OAK PARK BLVD 101 NB VDS ONNB NB	1
501015142	101	N	5	79	2868	14.704	188.266	35.13056	-120.608214	.46	ML	2	OAK PARK BLVD 101 NB VDS MLNB NB	1
501015143	101	S	5	79	2868	14.705	188.24	35.13039	-120.608333	.46	ML	2	OAK PARK BLVD 101 NB VDS MLSB SB	1
501015144	101	S	5	79	2868	14.706	188.241	35.130394	-120.60835		OR	1	OAK PARK BLVD 101 NB VDS ONSB SB	1
501015151	101	N	5	79	2868	15.201	188.763	35.133568	-120.616154		FR	1	4TH ST 101 NB EXIT VDS OFNB NB	1
501015152	101	N	5	79	2868	15.202	188.764	35.133575	-120.616169	.507	ML	2	4TH ST 101 NB EXIT VDS MLNB NB	1
501015153	101	S	5	79	2868	15.203	188.738	35.133413	-120.61628	.506	ML	2	4TH ST 101 NB EXIT VDS MLSB SB	1
501015154	101	N	5	79	2868	15.202	188.764	35.133575	-120.616169		FR	1	4TH ST 101 NB EXIT VDS OFSB SB	1
501016011	101	N	5	79	2868	15.716	189.278	35.13696	-120.624225		OR	1	4TH ST 101 NB ON RAMP VDS ONNB N	1
501016012	101	N	5	79	2868	15.717	189.279	35.136964	-120.624242	.482	ML	2	4TH ST 101 NB ON RAMP VDS MLNB N	1
501016013	101	S	5	79	2868	15.718	189.253	35.136794	-120.624363	.481	ML	2	4TH ST 101 NB ON RAMP VDS MLSB S	1
501016014	101	S	5	79	2868	15.719	189.254	35.136798	-120.62438		OR	1	4TH ST 101 NB ON RAMP VDS ONSB S	1
501016021	101	N	5	79	2868	16.165	189.727	35.138557	-120.631894		FR	1	PRICE ST EXIT SIGN 101 NB VDS OF	1
501016022	101	N	5	79	2868	16.166	189.728	35.138561	-120.631911	.476	ML	2	PRICE ST EXIT SIGN 101 NB VDS ML	1
501016023	101	S	5	79	2868	16.167	189.702	35.138331	-120.632049	.475	ML	2	PRICE ST EXIT SIGN 101 NB VDS ML	1
501016024	101	S	5	79	2868	16.168	189.703	35.138334	-120.632066		OR	1	PRICE ST EXIT SIGN 101 NB VDS ON	1
501016031	101	S	5	79	57414	16.669	190.204	35.14195	-120.639431	.506	ML	2	HINDS AVE 101 SB VDS MLSB SB	1
501016032	101	N	5	79	57414	16.67	190.232	35.142173	-120.639354	.506	ML	2	HINDS AVE 101 SB VDS MLNB NB	1
501016041	101	N	5	79	57414	17.177	190.739	35.147492	-120.645484		OR	1	BELLO ST 101 NB VDS ONNB NB	1
501016042	101	N	5	79	57414	17.178	190.74	35.147501	-120.645498	.622	ML	2	BELLO ST 101 NB VDS MLNB NB	1
501016043	101	S	5	79	57414	17.179	190.714	35.147275	-120.645623	.623	ML	2	BELLO ST 101 NB VDS MLSB SB	1
501016044	101	S	5	79	57414	17.18	190.715	35.147282	-120.645638		FR	1	BELLO ST 101 NB VDS OFSB SB	1
501016051	101	N	5	79	57414	17.914	191.476	35.151902	-120.657227		OR	1	SHELL BEACH RD 101 NB VDS ONNB N	1
501016052	101	N	5	79	57414	17.915	191.477	35.151907	-120.657244	.54	ML	2	SHELL BEACH RD 101 NB VDS MLNB N	1
501016053	101	S	5	79	57414	17.916	191.451	35.151759	-120.657382	.54	ML	2	SHELL BEACH RD 101 NB VDS MLSB S	1
501016061	101	N	5	79	57414	18.26	191.822	35.154321	-120.662556	.936	ML	2	MATTIE RD 101 NB VDS MLNB NB	1
501016062	101	S	5	79	57414	18.261	191.796	35.154187	-120.66268	.935	ML	2	MATTIE RD 101 NB VDS MLSB SB	1
501016063	101	S	5	79	57414	18.262	191.797	35.154194	-120.662695		OR	1	MATTIE RD 101 NB VDS ONSB SB	1
501016071	101	S	5	79	57414	R19.797	193.322	35.163842	-120.686844	1.333	ML	2	SPYGLASS DR 101 SB VDS MLSB SB	1
501016072	101	N	5	79	57414	R19.798	193.35	35.164041	-120.686722	1.333	ML	2	SPYGLASS DR 101 SB VDS MLNB NB	1
501016081	101	N	5	79	57414	R20.937	194.489	35.177719	-120.697892	1.099	ML	2	AVILA BEACH DR 101 NB VDS MLNB N	1
501016082	101	S	5	79		R20.938	194.463	35.177564	-120.698173	1.099	ML	3	AVILA BEACH DR 101 NB VDS MLSB S	1
501016083	101	S	5	79		R20.939	194.464	35.177579	-120.698178		OR	1	AVILA BEACH DR 101 NB VDS ONSB S	1
501016091	101	S	5	79		R21.995	195.52	35.191977	-120.70089	1.664	ML	2	SAN LUIS BAY DR 101 SB VDS MLSB	1
501016092	101	N	5	79		R21.996	195.548	35.192085	-120.70065	1.664	ML	2	SAN LUIS BAY DR 101 SB VDS MLNB	1
501016101	101	N	5	79		R24.267	197.819	35.22339	-120.691523	1.404	ML	2	SO HIGUERA ST EXIT 101 NB VDS ML	1
501016102	101	S	5	79		R24.268	197.793	35.223555	-120.691712	1.405	ML	2	SO HIGUERA ST EXIT 101 NB VDS ML	1
501016111	101	N	5	79		R24.804	198.356	35.231056	-120.690411		OR	1	SO HIGUERA ST ON RAMP ST 101 NB	1
501016112	101	N	5	79		R24.805	198.357	35.23107	-120.690404	.787	ML	2	SO HIGUERA ST ON RAMP ST 101 NB	1
501016113	101	S	5	79		R24.806	198.331	35.231265	-120.690588	.787	ML	2	SO HIGUERA ST ON RAMP ST 101 NB	1
501016121	101	S	5	79		25.848	199.365	35.243944	-120.682731		OR	1	LOS OSOS VALLEY RD 101 SB VDS ON	1
501016122	101	S	5	79		25.849	199.366	35.243957	-120.682724	.776	ML	2	LOS OSOS VALLEY RD 101 SB VDS ML	1
501016123	101	N	5	79	68154	25.85	199.394	35.243752	-120.682609	.775	ML	2	LOS OSOS VALLEY RD 101 SB VDS ML	1
501016124	101	N	5	79	68154	25.851	199.395	35.243765	-120.682602		OR	1	LOS OSOS VALLEY RD 101 SB VDS ON	1
501016131	101	N	5	79	68154	26.365	199.909	35.250519	-120.678636	.526	ML	2	PRADO RD CMS 101 NB VDS MLNB NB	1
501016132	101	S	5	79	68154	26.366	199.883	35.250736	-120.678743	.527	ML	2	PRADO RD CMS 101 NB VDS MLSB SB	1
501016141	101	N	5	79	68154	26.902	200.446	35.257561	-120.674434		OR	1	PRADO RD 101 NB VDS ONNB NB	1
501016142	101	N	5	79	68154	26.903	200.447	35.257574	-120.674426	.558	ML	2	PRADO RD 101 NB VDS MLNB NB	1
501016143	101	S	5	79	68154	26.904	200.421	35.257767	-120.674537	.557	ML	2	PRADO RD 101 NB VDS MLSB SB	1
501016151	101	S	5	79	68154	27.478	200.995	35.265975	-120.673686		FR	1	MADONNA RD 101 SB VDS OFSB SB	1
501016152	101	S	5	79	68154	27.479	200.996	35.265989	-120.673684	.544	ML	2	MADONNA RD 101 SB VDS MLSB SB	1
501016153	101	N	5	79	68154	27.48	201.024	35.265831	-120.673503	.545	ML	2	MADONNA RD 101 SB VDS MLNB NB	1
501017011	101	S	5	79	68154	27.993	201.51	35.27331	-120.67192	.619	ML	2	MARSH ST 101 SB VDS MLSB SB	1
501017012	101	N	5	79	68154	27.994	201.538	35.273178	-120.67176	.619	ML	2	MARSH ST 101 SB VDS MLNB NB	1
501017013	101	N	5	79	68154	27.995	201.539	35.273192	-120.671756		FR	1	MARSH ST 101 SB VDS OFNB NB	1
501017021	101	S	5	79	68154	28.716	202.233	35.283241	-120.667832		OR	1	BROAD ST 101 SB VDS ONSB SB	1
501017022	101	S	5	79	68154	28.717	202.234	35.283253	-120.667822	.579	ML	2	BROAD ST 101 SB VDS MLSB SB	1
501017023	101	N	5	79	68154	28.718	202.262	35.28315	-120.667643	.578	ML	2	BROAD ST 101 SB VDS MLNB NB	1
501017024	101	N	5	79	68154	28.719	202.263	35.283162	-120.667633		OR	1	BROAD ST 101 SB VDS ONNB NB	1
501017031	101	N	5	79	68154	29.148	202.692	35.287464	-120.662511		FR	1	TORO ST 101 NB VDS OFNB NB	1
501017032	101	N	5	79	68154	29.149	202.693	35.287474	-120.662498	.467	ML	2	TORO ST 101 NB VDS MLNB NB	1
501017033	101	S	5	79	68154	29.15	202.667	35.287613	-120.66262	.467	ML	2	TORO ST 101 NB VDS MLSB SB	1
501017041	101	S	5	79	68154	29.65	203.167	35.291917	-120.65563		OR	1	GRAND AVE IN SLO AT 101 SB VDS O	1
501017042	101	S	5	79	68154	29.651	203.168	35.29192	-120.655613	.437	ML	2	GRAND AVE IN SLO AT 101 SB VDS M	1
501017043	101	N	5	79	68154	29.652	203.196	35.291784	-120.655535	.437	ML	2	GRAND AVE IN SLO AT 101 SB VDS M	1
501017044	101	N	5	79	68154	29.653	203.197	35.291788	-120.655518		FR	1	GRAND AVE IN SLO AT 101 SB VDS O	1
501017051	101	N	5	79	68154	30.024	203.568	35.291755	-120.648986	.651	ML	2	MONTEREY ST 101 NB VDS MLNB NB	1
501017052	101	S	5	79	68154	30.025	203.542	35.291923	-120.648894	.652	ML	2	MONTEREY ST 101 NB VDS MLSB SB	1
501017061	101	N	5	79		30.953	204.497	35.29537	-120.633652	1.103	ML	2	FOX HOLLOW RD 101 NB VDS MLNB NB	1
501017062	101	S	5	79		30.954	204.471	35.295494	-120.633606	2.483	ML	2	FOX HOLLOW RD 101 NB VDS MLSB SB	1
501017071	101	N	5	79		32.23	205.774	35.310353	-120.624422	.263	ML	2	N. OF RESERVIOR CYN RD MLNB	1
501017072	101	N	5	79		32.23	205.774	35.310353	-120.624422	.638	ML	2	N. OF RESERVIOR CYN RD MLSB	1
501017081	101	N	5	79		32.76	206.304	35.31743	-120.621187	.365	ML	3	CT CONSTUCTION OFFICE MLNB	1
501017082	101	N	5	79		32.757	206.301	35.317386	-120.621188	.265	ML	3	CT CONSTUCTION OFFICE MLSB	1
501017091	101	N	5	79		R33.489	207.033	35.327743	-120.620334	1.25	ML	3	OLD RTE 101 TURNOUT MLNB	1
501017092	101	N	5	79		R33.489	207.033	35.327743	-120.620334	.364	ML	3	OLD RTE 101 TURNOUT MLSB	1
501017101	101	S	5	79		35.041	208.509	35.347605	-120.630022		OR	1	TOP OF CUESTA GRADE ONSB	1
501017102	101	S	5	79		35.042	208.51	35.347618	-120.630031	2.019	ML	3	TOP OF CUESTA GRADE MLSB	1
501017103	101	S	5	79		35.043	208.511	35.34763	-120.630039	.496	ML	3	TOP OF CUESTA GRADE MLNB	1
501017111	101	S	5	79		36.036	209.504	35.360159	-120.638023	.833	ML	2	PM 36.06 DIRT ROAD SLO 101 SB VD	1
501017112	101	N	5	79		36.037	209.532	35.360234	-120.637844		FR	1	PM 36.06 DIRT ROAD SLO 101 SB VD	1
501017113	101	N	5	79		36.038	209.533	35.360248	-120.637847	1.585	ML	2	PM 36.06 DIRT ROAD SLO 101 SB VD	1
501017121	101	N	5	79		36.708	210.203	35.369261	-120.641074	.86	ML	2	TASSAJARA CREEK RD 101 NB VDS ML	1
501017122	101	N	5	79		36.709	210.204	35.369275	-120.641073		FR	1	TASSAJARA CREEK RD 101 NB VDS OF	1
501017123	101	S	5	79		36.71	210.178	35.369352	-120.641432	.861	ML	2	TASSAJARA CREEK RD 101 NB VDS ML	1
501017131	101	S	5	79		37.757	211.225	35.381995	-120.631566		FR	1	HWY 58 AT 101 SB VDS OFSB SB	1
501017132	101	S	5	79		37.758	211.226	35.382007	-120.631555	1.086	ML	2	HWY 58 AT 101 SB VDS MLSB SB	1
501017133	101	N	5	79		37.759	211.254	35.381915	-120.631379	1.086	ML	2	HWY 58 AT 101 SB VDS MLNB NB	1
501017134	101	N	5	79		37.76	211.255	35.381927	-120.631368		FR	1	HWY 58 AT 101 SB VDS OFNB NB	1
501017141	101	N	5	79		38.881	212.376	35.396467	-120.622696	1.034	ML	2	PM 38.93 SLO 101 NB VDS MLNB NB	1
501017142	101	S	5	79		38.882	212.35	35.396569	-120.622878	1.035	ML	2	PM 38.93 SLO 101 NB VDS MLSB SB	1
501017151	101	N	5	79		39.827	213.322	35.409754	-120.625997	1.105	ML	2	PM 39.88 SLO 101 NB VDS MLNB NB	1
501017152	101	S	5	79		39.828	213.296	35.409815	-120.626213	1.105	ML	2	PM 39.88 SLO 101 NB VDS MLSB SB	1
501018011	101	N	5	79		41.091	214.586	35.427013	-120.633325	1.197	ML	2	PM 41.15 SLO 101 NB VDS MLNB NB	1
501018012	101	S	5	79		41.092	214.56	35.427035	-120.633548	1.197	ML	2	PM 41.15 SLO 101 NB VDS MLSB SB	1
501018021	101	N	5	79		42.221	215.716	35.44283	-120.638113	.866	ML	2	SANTA BARBARA RD 101 NB VDS MLNB	1
501018022	101	S	5	79	3064	42.222	215.69	35.442822	-120.638327	.867	ML	2	SANTA BARBARA RD 101 NB VDS MLSB	1
501018031	101	N	5	79		42.824	216.319	35.45141	-120.640031	.861	ML	2	SAN DIEGO RD 101 NB VDS MLNB NB	1
501018032	101	S	5	79	3064	42.825	216.293	35.451383	-120.640268	.86	ML	2	SAN DIEGO RD 101 NB VDS MLSB SB	1
501018041	101	S	5	79	3064	43.943	217.411	35.465102	-120.650837	.979	ML	2	SANTA ROSA RD 101 SB VDS MLSB SB	1
501018042	101	N	5	79		43.944	217.439	35.46519	-120.650626	.979	ML	2	SANTA ROSA RD 101 SB VDS MLNB NB	1
501018051	101	N	5	79		44.782	218.277	35.475773	-120.657932	.712	ML	2	CURBARIL AVE 101 NB VDS MLNB NB	1
501018052	101	S	5	79	3064	44.783	218.251	35.475704	-120.658113	.713	ML	2	CURBARIL AVE 101 NB VDS MLSB SB	1
501018061	101	N	5	79		45.368	218.863	35.483446	-120.66233		FR	1	HWY 41 AT 101 NB VDS OFNB NB	1
501018062	101	N	5	79		45.369	218.864	35.483458	-120.662341	.499	ML	2	HWY 41 AT 101 NB VDS MLNB NB	1
501018063	101	S	5	79	3064	45.37	218.838	35.483377	-120.66249	.498	ML	2	HWY 41 AT 101 NB VDS MLSB SB	1
501018071	101	N	5	79	3064	45.779	219.274	35.487088	-120.668093		FR	1	TRAFFIC WAY 101 SB VDS OFNB NB	1
501018072	101	N	5	79	3064	45.78	219.275	35.487096	-120.668108	1.982	ML	2	TRAFFIC WAY 101 SB VDS MLNB NB	1
501018073	101	S	5	79	3064	45.781	219.249	35.487016	-120.66824	.963	ML	2	TRAFFIC WAY 101 SB VDS MLSB SB	1
501018074	101	S	5	79	3064	45.782	219.25	35.487025	-120.668255		OR	1	TRAFFIC WAY 101 SB VDS ONSB SB	1
501018081	101	S	5	79	3064	47.297	220.765	35.501059	-120.6889	.759	ML	2	SAN ANSELMO CMS MLSB	1
501018082	101	S	5	79	3064	47.299	220.767	35.501079	-120.688926	.512	ML	2	SAN ANSELMO CMS MLNB	1
501018091	101	S	5	79	3064	48.32	221.788	35.513022	-120.699411	.513	ML	2	DEL RIO RD OC MLSB	1
501018092	101	S	5	79	3064	48.325	221.793	35.513086	-120.699454	2.502	ML	2	DEL RIO RD OC MLNB	1
501018101	101	N	5	79	3064	49.334	222.825	35.526722	-120.704538		OR	1	SAN RAMON RD OC ONNB	1
501018102	101	N	5	79	3064	49.337	222.828	35.526761	-120.704561	1.777	ML	2	SAN RAMON RD OC MLNB	1
501018103	101	N	5	79	3064	49.338	222.829	35.526774	-120.704569	.658	ML	2	SAN RAMON RD OC MLSB	1
501018104	101	N	5	79	3064	49.338	222.829	35.526774	-120.704569		FR	1	SAN RAMON RD OC OFSB	1
501018111	101	N	5	79		50.662	224.147	35.543807	-120.714407	.486	ML	2	VINEYARD DR OC MLNB	1
501018112	101	N	5	79		50.659	224.144	35.543766	-120.71439	.658	ML	2	VINEYARD DR OC MLSB	1
501018113	101	N	5	79		50.658	224.143	35.543752	-120.714385		FR	1	VINEYARD DR OC OFSB	1
501018121	101	N	5	79		51.632	225.117	35.556288	-120.710165		OR	1	LAS TABLAS RD UC ONNB	1
501018122	101	N	5	79		51.632	225.117	35.556288	-120.710165	.488	ML	2	LAS TABLAS RD UC MLNB	1
501018123	101	N	5	79		51.639	225.124	35.55637	-120.710091	.413	ML	2	LAS TABLAS RD UC MLSB	1
501018124	101	N	5	79		51.639	225.124	35.55637	-120.710091		FR	1	LAS TABLAS RD UC OFSB	1
501018131	101	N	5	79		52.465	225.95	35.566199	-120.70173	.744	ML	2	NORTH MAIN ST OC MLNB	1
501018132	101	N	5	79		52.459	225.944	35.56612	-120.701774	.413	ML	2	NORTH MAIN ST OC MLSB	1
501018141	101	N	5	79		53.948	227.433	35.586957	-120.695794		FR	1	101 at 46W NB EXIT OFNB	1
501018142	101	N	5	79		53.948	227.433	35.586957	-120.695794	.154	ML	2	101 at 46W NB EXIT MLNB	1
501018143	101	N	5	79		53.9481	227.433	35.586957	-120.695794	.741	ML	2	101 at 46W NB EXIT MLSB	1
501018144	101	N	5	79		54.007	227.492	35.587807	-120.695668		OR	1	101 at 46W NB EXIT ONSB	1
501018151	101	N	5	79		54.258	227.743	35.591431	-120.695297		OR	1	101 AT 46W NB ONRAMP ONNB	1
501018152	101	N	5	79		54.257	227.742	35.591417	-120.695297	.155	ML	2	101 AT 46W NB ONRAMP MLNB	1
501018153	101	N	5	79		54.258	227.743	35.591431	-120.695297	.326	ML	2	101 AT 46W NB ONRAMP MLSB	1
501018154	101	N	5	79		54.258	227.743	35.591431	-120.695297		FR	1	101 AT 46W NB ONRAMP OFSB	1
501019011	101	N	5	53		85.64	325.86	36.660991	-121.622983	2.505	ML	2	AIRPORT BLVD MLNB	1
501019012	101	N	5	53		85.65	325.87	36.661123	-121.623058	.175	ML	2	AIRPORT BLVD MLSB	1
501019013	101	N	5	53		85.66	325.88	36.661254	-121.623134		FR	1	AIRPORT BLVD OFSB	1
501019021	101	N	5	53	64224	85.99	326.21	36.665337	-121.626131	.176	ML	2	SANBORN RD HWY 101 NB VDS MLNB	1
501019022	101	N	5	53	64224	86.001	326.221	36.665442	-121.62628	.716	ML	2	SANBORN RD HWY 101 NB VDS MLSB	1
501019023	101	N	5	53	64224	86.001	326.221	36.665442	-121.62628		OR	1	SANBORN RD HWY 101 NB VDS ONSB	1
501019031	101	S	5	53	64224	86.635	326.835	36.669175	-121.636672	2.5	ML	2	JOHN ST HWY 101 NB VDS MLNB	1
501019032	101	S	5	53	64224	86.635	326.835	36.669175	-121.636672	.91	ML	2	JOHN ST HWY 101 NB VDS MLSB	1
501019041	101	N	5	53	64224	87.423	327.643	36.679277	-121.641687	.719	ML	2	EAST MARKET ST HWY 101 NB VDS ML	1
501019042	101	N	5	53	64224	87.439	327.659	36.6795	-121.641766	.938	ML	2	EAST MARKET ST HWY 101 NB VDS ML	1
501019043	101	N	5	53	64224	87.439	327.659	36.6795	-121.641766		FR	1	EAST MARKET ST HWY 101 NB VDS OF	1
501019051	101	S	5	53	64224	R88.46	328.66	36.68869	-121.655748		FR	1	MAIN ST EXIT HWY 101 SB VDS OFSB	1
501019052	101	S	5	53	64224	R88.478	328.678	36.688864	-121.655989	1.888	ML	2	MAIN ST EXIT HWY 101 SB VDS MLSB	1
501019053	101	S	5	53	64224	R88.455	328.655	36.688641	-121.655681	.921	ML	2	MAIN ST EXIT HWY 101 SB VDS MLNB	1
501019061	101	N	5	53	64224	R89.3	329.52	36.698288	-121.664531		OR	1	LAUREL RD HWY 101 NB ONNB1	1
501019062	101	N	5	53	64224	R89.3	329.52	36.698288	-121.664531	.825	ML	2	LAUREL RD HWY 101 NB MLNB	1
501019063	101	N	5	53	64224	R89.3	329.52	36.698288	-121.664531	.93	ML	2	LAUREL RD HWY 101 NB MLSB	1
501019064	101	N	5	53	64224	R89.3	329.52	36.698288	-121.664531		FR	1	LAUREL RD HWY 101 NB OFSB1	1
501019071	101	N	5	53		90.95	331.17	36.721175	-121.659821	.642	ML	2	BORANDA HWY 101 NB VDS MLNB	1
501019072	101	N	5	53		90.95	331.17	36.721175	-121.659821	.825	ML	2	BORANDA HWY 101 NB VDS MLSB	1
501019091	101	S	5	53		91.887	332.432	36.739239	-121.658707	3.159	ML	3	ESPINOSA RD HWY 101 SB VDS MLSB	1
501019092	101	N	5	53		91.888	332.453	36.739273	-121.658577	1.923	ML	3	ESPINOSA RD HWY 101 SB VDS MLNB	1
501019101	101	S	5	53		94.45	334.995	36.775227	-121.669379	3.237	ML	2	PRUNEDALE SOUTH RD HWY 101 SB VD	1
501019102	101	N	5	53		94.451	335.016	36.775206	-121.669215	1.309	ML	2	PRUNEDALE SOUTH RD HWY 101 SB VD	1
501019111	101	N	5	53		94.512	335.077	36.776087	-121.669274	.515	ML	2	PESANTE RD HWY 101 VDS MLNB	1
501019112	101	N	5	53		94.508	335.073	36.776029	-121.66927	.03	ML	2	PESANTE RD HWY 101 NB VDS MLSB	1
501019121	101	N	5	53		95.538	336.103	36.790781	-121.667085		FR	1	HWY 156 / VIERRA CYN RD AT HWY 1	1
501019122	101	N	5	53		95.538	336.103	36.790781	-121.667085	.513	ML	2	HWY 156 / VIERRA CYN RD AT HWY 1	1
501019123	101	N	5	53		95.538	336.103	36.790781	-121.667085	.134	ML	2	HWY 156 / VIERRA CYN RD AT HWY 1	1
501019124	101	N	5	53		95.538	336.103	36.790781	-121.667085		FR	2	HWY 156 / VIERRA CYN RD AT HWY 1	1
501019131	101	N	5	53		95.806	336.371	36.794603	-121.666281		FR	1	SAN MIGUEL CYN RD HWY 101 NB VDS	1
501019132	101	N	5	53		95.806	336.371	36.794603	-121.666281	1.277	ML	2	SAN MIGUEL CYN RD HWY 101 NB VDS	1
501019133	101	N	5	53		95.806	336.371	36.794603	-121.666281	.134	ML	2	SAN MIGUEL CYN RD HWY 101 NB VDS	1
501019134	101	N	5	53		95.806	336.371	36.794603	-121.666281		OR	1	SAN MIGUEL CYN RD HWY 101 NB VDS	1
501019151	101	N	5	53		98.36	338.925	36.818155	-121.632959	2.622	ML	2	CRAZY HORSE CYN RD HWY 101 NB VD	1
501019152	101	S	5	53		98.361	338.906	36.818238	-121.633045	3.3	ML	2	CRAZY HORSE CYN RD HWY 101 NB VD	1
501019153	101	S	5	53		98.362	338.907	36.818246	-121.633029		FR	1	CRAZY HORSE CYN RD HWY 101 NB VD	1
501020011	101	N	5	53		101.05	341.615	36.854238	-121.633468	1.63	ML	2	SAN JUAN RD NB 101 VDS MLNB NB	1
501020012	101	S	5	53		101.051	341.596	36.854374	-121.633571	1.649	ML	2	SAN JUAN RD NB 101 VDS MLSB SB	1
501021011	101	N	5	79		54.91	228.395	35.600563	-120.693038	.328	ML	2	SPRING ST NEXT RIGHT EXIT SIGN M	1
501021012	101	N	5	79		54.913	228.398	35.600603	-120.693018	.623	ML	2	SPRING ST NEXT RIGHT EXIT SIGN M	1
501021021	101	N	5	79		56.158	229.643	35.617666	-120.686954	.626	ML	2	PASO ROBLES ST MLNB	1
501021022	101	N	5	79		56.167	229.652	35.617784	-120.686885	2.504	ML	2	PASO ROBLES ST MLSB	1
501021031	101	S	5	79	22300	57.105	230.563	35.631229	-120.686778		OR	1	17TH ST ONRAMP ONSB	1
501021032	101	S	5	79	22300	57.102	230.56	35.631185	-120.686782	.478	ML	2	17TH ST ONRAMP MLSB	1
501021033	101	S	5	79	22300	57.101	230.559	35.631171	-120.686784	2.501	ML	2	17TH ST ONRAMP MLNB	1
501021041	101	S	5	79	22300	58.064	231.522	35.644516	-120.686368		FR	1	46E SB EXIT OFSB	1
501021042	101	S	5	79	22300	58.059	231.517	35.64445	-120.686331	.952	ML	2	46E SB EXIT MLSB	1
501021051	101	S	5	79		59.015	232.473	35.654841	-120.69647		FR	1	SPRING ST SB EXIT OFSB	1
501021052	101	S	5	79		59.007	232.465	35.654764	-120.696365	2.974	ML	2	SPRING ST SB EXIT MLSB	1
501022051	101	S	5	69		R4.3	346.093	36.87629	-121.56885	2.5	ML	3	SOUTH OF ANZAR RD MLSB	1
501022052	101	S	5	69		R4.3	346.093	36.87629	-121.56885	2.5	ML	2	SOUTH OF ANZAR RD MLNB	1
501560011	156	E	5	69		0.062	6.431	36.861314	-121.578409		OR	1	EAST OF HWY 101 ON HWY 156 EB VD	1
501560012	156	E	5	69		0.062	6.431	36.861314	-121.578409	.272	ML	1	EAST OF HWY 101 ON HWY 156 EB VD	1
501560013	156	W	5	69		0.062	6.431	36.861312	-121.578407	.086	ML	1	EAST OF HWY 101 ON HWY 156 EB VD	1
501560014	156	W	5	69		0.062	6.431	36.861312	-121.578407		FR	1	EAST OF HWY 101 ON HWY 156 EB VD	1
501560021	156	E	5	69		0.545	6.914	36.856446	-121.572318	.824	ML	2	ROCKS RD HWY 156 EB VDS MLEB EB	1
501560022	156	W	5	69		0.545999999999999	6.915	36.856522	-121.572171		FR	1	ROCKS RD HWY 156 EB VDS OFWB WB	1
501560023	156	W	5	69		0.547	6.916	36.856512	-121.572158	.767	ML	2	ROCKS RD HWY 156 EB VDS MLWB WB	1
501560031	156	W	5	69		1.709	8.078	36.848034	-121.55453	1.482	ML	2	WEST OF MONTEREY ST ON HWY 156 W	1
501560032	156	E	5	69		1.71	8.079	36.847924	-121.554642	1.483	ML	2	WEST OF MONTEREY ST ON HWY 156 W	1
501560041	156	W	5	69	68014	3.51	9.879	36.840863	-121.524776	2.603	ML	1	BREEN RD HWY 156 WB VDS MLWB WB	1
501560042	156	E	5	69	68014	3.511	9.88	36.840863	-121.524821		FR	1	BREEN RD HWY 156 WB VDS OFEB EB	1
501560043	156	E	5	69	68014	3.512	9.881	36.840863	-121.524803	2.604	ML	1	BREEN RD HWY 156 WB VDS MLEB EB	1
501560051	156	W	5	69		6.917	13.286	36.841688	-121.463407	2.027	ML	1	WEST OF MITCHELL RD ON HWY 156 W	1
501560052	156	E	5	69		6.918	13.287	36.841688	-121.463397	2.027	ML	1	WEST OF MITCHELL RD ON HWY 156 W	1
501560061	156	W	5	69		R7.564	13.933	36.846036	-121.454392	2.553	ML	1	BUSINESS RTE 156 ON HWY 156 WB V	1
501560062	156	E	5	69		R7.565	13.934	36.846047	-121.454385	1.041	ML	1	BUSINESS RTE 156 ON HWY 156 WB V	1
501560071	156	E	5	69		R9.001	15.37	36.864857	-121.443468	2.229	ML	1	NORTH OF BUENA VISTA RD ON HWY 1	1
501560081	156	E	5	69		R12.023	18.392	36.904651	-121.42431	4.011	ML	1	NORTH OF RTE 25 ON HWY 156 EB VD	1
501560082	156	W	5	69		R12.024	18.393	36.904663	-121.424301	3.751	ML	1	NORTH OF RTE 25 ON HWY 156 EB VD	1
501560091	156	W	5	69		R16.318	21.435	36.930005	-121.389105	1.522	ML	1	FAIRVIEW RD HWY 156 WB VDS MLWB	1
501560092	156	W	5	69		R16.320	21.437	36.930033	-121.389097	2.164	ML	1	FAIRVIEW RD HWY 156 WB VDS MLEB	1
501560101	156	W	5	69		0.174	6.543	36.860354	-121.576807	.186	ML	1	HWY 101 AT 156 WB OH SIGN MLWB	1
501560102	156	W	5	69		0.173	6.542	36.860363	-121.57682	.056	ML	1	HWY 101 AT 156 WB OH SIGN MLEB	1
502460011	246	E	5	83		24.692	16	34.621735	-120.215044	2.5	ML	1	EAST OF EDISON ST CMS MLEB	1
502460012	246	E	5	83		24.692	16	34.621735	-120.215044	2.5	ML	1	EAST OF EDISON ST CMS MLWB	1
504600011	46	W	5	79	22300	31.876	23.938	35.644647	-120.64805	2.501	ML	2	UNION RD CMS MLWB	1
504600012	46	W	5	79	22300	31.877	23.939	35.644647	-120.648033		FR	1	UNION RD CMS OFWB	1
504600013	46	W	5	79	22300	31.8777	23.94	35.644647	-120.648015	2.501	ML	2	UNION RD CMS MLEB	1
506800011	68	E	5	53	48872	R4.11	4.426	36.593089	-121.867138	.169	ML	2	EAST OF FAIRGROUND RD OC HWY 68	1
506800012	68	E	5	53	48872	R4.099	4.415	36.593245	-121.867146	2.506	ML	2	EAST OF FAIRGROUND RD OC HWY 68	1
506800021	68	E	5	53	48872	R4.437	4.753	36.588619	-121.866074	.163	ML	1	WEST OF JOSELYN CANYON RD HWY 68	1
506800022	68	E	5	53	48872	R4.438	4.754	36.588607	-121.866064	2.5	ML	2	WEST OF JOSELYN CANYON RD HWY 68	1
506800031	68	W	5	53	48872	5.661	5.865	36.583693	-121.848058	2.5	ML	1	EAST OF OLMSTED RD HWY 68 WB VDS	1
506800032	68	W	5	53	48872	5.662	5.866	36.583689	-121.848041	.792	ML	1	EAST OF OLMSTED RD HWY 68 WB VDS	1
506800041	68	W	5	53	18688	7.246	7.45	36.576014	-121.823197	.792	ML	1	EAST OF RAGSDALE DR HWY 68 WB VD	1
506800042	68	W	5	53	18688	7.247	7.451	36.576004	-121.823184	.901	ML	1	EAST OF RAGSDALE DR HWY 68 WB VD	1
506800051	68	W	5	53		9.05	9.254	36.569456	-121.792837	.906	ML	1	WEST OF PASADERA DR HWY 68 WB VD	1
506800052	68	W	5	53		9.06	9.264	36.569493	-121.792664	.596	ML	1	WEST OF PASADERA DR HWY 68 WB VD	1
506800061	68	W	5	53		10.242	10.446	36.569476	-121.773156	.592	ML	1	EAST OF PASADERA DR HWY 68 WB VD	1
506800062	68	W	5	53		10.243	10.447	36.569485	-121.773143	.849	ML	1	EAST OF PASADERA DR HWY 68 WB VD	1
506800071	68	E	5	53		11.034	11.238	36.570195	-121.759253	2.501	ML	1	LAGUNA SECA MAIN ENTRANCE HWY 68	1
506800072	68	E	5	53		11.035	11.239	36.570193	-121.759234	.898	ML	1	LAGUNA SECA MAIN ENTRANCE HWY 68	1
506800081	68	W	5	53		11.94	12.144	36.571842	-121.743067	.849	ML	1	EAST OF LAURELESS GRADE RD WB HW	1
506800082	68	W	5	53		11.941	12.145	36.571846	-121.74305	.769	ML	1	EAST OF LAURELESS GRADE RD WB HW	1
506800091	68	E	5	53		12.832	13.036	36.578124	-121.72932	.899	ML	1	WEST OF CORRAL DE TIERRA RD HWY	1
506800092	68	E	5	53		12.833	13.037	36.57813	-121.729303	.857	ML	1	WEST OF CORRAL DE TIERRA RD HWY	1
506800101	68	W	5	53		13.479	13.683	36.581022	-121.718503	.769	ML	1	EAST OF SAN BENANCIO RD HWY 68 W	1
506800102	68	W	5	53		13.480	13.684	36.581031	-121.718488	2.5	ML	1	EAST OF SAN BENANCIO RD HWY 68 W	1
506800111	68	E	5	53		14.547	14.751	36.592297	-121.706135	.858	ML	1	TORERO DR HWY 68 EB VDS MLWB WB	1
506800112	68	E	5	53		14.548	14.752	36.592307	-121.706122	.541	ML	1	TORERO DR HWY 68 EB VDS MLEB EB	1
506800121	68	E	5	53		15.629	15.833	36.604686	-121.694619		OR	1	PORTOLA DR EB ON RAMP ONWB	1
506800122	68	E	5	53		15.630	15.834	36.604699	-121.69461	.542	ML	2	PORTOLA DR EB ON RAMP MLWB	1
506800123	68	E	5	53		15.631	15.835	36.604712	-121.694601	.813	ML	2	PORTOLA DR EB ON RAMP MLEB	1
506800124	68	E	5	53		15.632	15.836	36.604724	-121.694592		FR	1	PORTOLA DR EB ON RAMP OFEB	1
506800131	68	E	5	53		17.257	17.461	36.625285	-121.680718	.814	ML	2	RESERVATION & RIVER RD HWY 68 EB	1
506800132	68	E	5	53		17.258	17.462	36.625294	-121.680703	.483	ML	2	RESERVATION & RIVER RD HWY 68 EB	1
506800141	68	E	5	53		18.224	18.428	36.634694	-121.668155	.483	ML	2	SPRECKELS BLVD HWY 68 EB VDS MLE	1
506800142	68	E	5	53		18.225	18.429	36.634707	-121.668147	2.5	ML	2	SPRECKELS BLVD HWY 68 EB VDS MLW	1
506800143	68	E	5	53		18.226	18.43	36.634719	-121.66814		FR	1	SPRECKELS BLVD HWY 68 EB VDS OFW	1
